NORAD_CAT_ID,OBJECT_NAME,OBJECT_TYPE,EPOCH,MEAN_MOTION,ECCENTRICITY,INCLINATION,RA_OF_ASC_NODE,ARG_OF_PERICENTER,MEAN_ANOMALY,BSTAR,MEAN_MOTION_DOT,MEAN_MOTION_DDOT,TLE_LINE0,TLE_LINE1,TLE_LINE2,SEMIMAJOR_AXIS,PERIOD,APOGEE,PERIGEE,DECAYED
53931.0,STARLINK-5015,PAYLOAD,2023-04-02 11:47:22,15.10344292,0.0001217,53.2198,72.1398,72.9641,287.1485,0.0054687,0.00091592,0.0,0 STARLINK-5015,1 53931U 22119AX  23092.49122837  .00091592  00000-0  54687-2 0  9996,2 53931  53.2198  72.1398 0001217  72.9641 287.1485 15.10344292 29750,6913.286,95.342,535.993,534.31,0.0
53931.0,STARLINK-5015,PAYLOAD,2023-04-03 06:00:00,15.10491755,0.0001167,53.2188,68.7232,98.9407,69.6913,-0.002906,-0.00048365,0.0,0 STARLINK-5015,1 53931U 22119AX  23093.25001157 -.00048365  00000-0 -29060-2 0  9991,2 53931  53.2188  68.7232 0001167  98.9407  69.6913 15.10491755 29867,6912.836,95.333,535.508,533.895,0.0
53931.0,STARLINK-5015,PAYLOAD,2023-04-03 14:00:01,15.10477458,0.0001141,53.2185,67.2222,107.6657,74.5213,-0.00087977,-0.00014909,0.0,0 STARLINK-5015,1 53931U 22119AX  23093.58334491 -.00014909  00000-0 -87977-3 0  9996,2 53931  53.2185  67.2222 0001141 107.6657  74.5213 15.10477458  1305,6912.88,95.334,535.534,533.956,0.0
53931.0,STARLINK-5015,PAYLOAD,2023-04-03 22:00:00,15.10477778,0.0001242,53.2188,65.7213,115.9115,79.8346,0.002268,0.00037666,0.0,0 STARLINK-5015,1 53931U 22119AX  23093.91667824  .00037666  00000-0  22680-2 0  9994,2 53931  53.2188  65.7213 0001242 115.9115  79.8346 15.10477778 29966,6912.879,95.334,535.602,533.885,0.0
53931.0,STARLINK-5015,PAYLOAD,2023-04-04 14:00:01,15.10457272,0.0001025,53.2181,62.7216,96.9116,125.9853,-0.0006893,-0.00011743,0.0,0 STARLINK-5015,1 53931U 22119AX  23094.58334491 -.00011743  00000-0 -68930-3 0  9998,2 53931  53.2181  62.7216 0001025  96.9116 125.9853 15.10457272 30063,6912.941,95.335,535.515,534.098,0.0
53931.0,STARLINK-5015,PAYLOAD,2023-04-04 16:00:00,15.10442971,0.0001037,53.2183,62.3463,101.2092,215.075,0.0013633,0.00022454,0.0,0 STARLINK-5015,1 53931U 22119AX  23094.66667824  .00022454  00000-0  13633-2 0  9994,2 53931  53.2183  62.3463 0001037 101.2092 215.0750 15.10442971  1303,6912.985,95.336,535.567,534.133,0.0
53931.0,STARLINK-5015,PAYLOAD,2023-04-05 00:00:00,15.10483479,0.0001087,53.2184,60.8465,103.8944,225.9136,-0.00043875,-7.59e-05,0.0,0 STARLINK-5015,1 53931U 22119AX  23095.00001157 -.00007590  00000-0 -43875-3 0  9992,2 53931  53.2184  60.8465 0001087 103.8944 225.9136 15.10483479  1304,6912.861,95.334,535.478,533.975,0.0
53931.0,STARLINK-5015,PAYLOAD,2023-04-05 04:53:52,15.10471635,0.0001249,53.219,59.9284,107.1615,252.9514,0.00010337,1.428e-05,0.0,0 STARLINK-5015,1 53931U 22119AX  23095.20408534  .00001428  00000-0  10337-3 0  9993,2 53931  53.2190  59.9284 0001249 107.1615 252.9514 15.10471635 30168,6912.898,95.334,535.626,533.899,0.0
53931.0,STARLINK-5015,PAYLOAD,2023-04-05 08:04:26,15.104788,0.0001107,53.219,59.3328,103.6822,256.4294,0.00063277,0.00010258,0.0,0 STARLINK-5015,1 53931U 22119AX  23095.33642169  .00010258  00000-0  63277-3 0  9993,2 53931  53.2190  59.3328 0001107 103.6822 256.4294 15.10478800 30609,6912.876,95.334,535.506,533.976,0.0
53931.0,STARLINK-5015,PAYLOAD,2023-04-05 20:46:42,15.10482493,0.0001118,53.2191,56.9509,102.1872,257.9246,0.00081314,0.00013272,0.0,0 STARLINK-5015,1 53931U 22119AX  23095.86576895  .00013272  00000-0  81314-3 0  9994,2 53931  53.2191  56.9509 0001118 102.1872 257.9246 15.10482493 30689,6912.864,95.334,535.502,533.957,0.0
53931.0,STARLINK-5015,PAYLOAD,2023-04-06 04:43:06,15.10492399,0.0001169,53.2191,55.4618,99.9814,260.1311,0.00086328,0.00014114,0.0,0 STARLINK-5015,1 53931U 22119AX  23096.19660764  .00014114  00000-0  86328-3 0  9996,2 53931  53.2191  55.4618 0001169  99.9814 260.1311 15.10492399 30314,6912.834,95.333,535.507,533.891,0.0
53931.0,STARLINK-5015,PAYLOAD,2023-04-06 06:18:23,15.10496827,0.0001166,53.2189,55.1639,99.5231,260.5894,0.00095658,0.00015676,0.0,0 STARLINK-5015,1 53931U 22119AX  23096.26277455  .00015676  00000-0  95658-3 0  9995,2 53931  53.2189  55.1639 0001166  99.5231 260.5894 15.10496827 30744,6912.821,95.333,535.492,533.88,0.0
53931.0,STARLINK-5015,PAYLOAD,2023-04-06 20:35:56,15.1049383,0.0001708,53.2189,52.4854,85.0199,275.0988,0.00040029,6.38e-05,0.0,0 STARLINK-5015,1 53931U 22119AX  23096.85828846  .00006380  00000-0  40029-3 0  9990,2 53931  53.2189  52.4854 0001708  85.0199 275.0988 15.10493830 30418,6912.83,95.333,535.876,533.514,0.0
53931.0,STARLINK-5015,PAYLOAD,2023-04-06 22:11:13,15.1048807,0.0001274,53.2191,52.1858,95.284,264.8298,0.00042799,6.842e-05,0.0,0 STARLINK-5015,1 53931U 22119AX  23096.92445658  .00006842  00000-0  42799-3 0  9993,2 53931  53.2191  52.1858 0001274  95.2840 264.8298 15.10488070 30843,6912.847,95.333,535.593,533.832,0.0
53931.0,STARLINK-5015,PAYLOAD,2023-04-07 02:57:03,15.10484065,0.0001209,53.219,51.2927,94.3069,265.8062,0.00027328,4.261e-05,0.0,0 STARLINK-5015,1 53931U 22119AX  23097.12296102  .00004261  00000-0  27328-3 0  9998,2 53931  53.2190  51.2927 0001209  94.3069 265.8062 15.10484065 30457,6912.86,95.334,535.56,533.889,0.0
53931.0,STARLINK-5015,PAYLOAD,2023-04-07 06:07:37,15.10485926,0.0001147,53.2185,50.6966,92.6401,267.4723,0.00036204,5.741e-05,0.0,0 STARLINK-5015,1 53931U 22119AX  23097.25529656  .00005741  00000-0  36204-3 0  9992,2 53931  53.2185  50.6966 0001147  92.6401 267.4723 15.10485926 30896,6912.854,95.334,535.512,533.926,0.0
53931.0,STARLINK-5015,PAYLOAD,2023-04-08 04:21:48,15.09938645,0.0001907,53.219,46.5292,116.7682,243.3506,-0.015772,-0.00250153,0.0,0 STARLINK-5015,1 53931U 22119AX  23098.18181394 -.00250153  00000-0 -15772-1 0  9994,2 53931  53.2190  46.5292 0001907 116.7682 243.3506 15.09938645 30612,6914.524,95.368,537.708,535.071,0.0
53931.0,STARLINK-5015,PAYLOAD,2023-04-08 05:57:05,15.10056734,0.0001173,53.218,46.2319,88.4311,271.6816,-0.0099877,-0.00161,0.0,0 STARLINK-5015,1 53931U 22119AX  23098.24797862 -.00161000  00000-0 -99877-2 0  9995,2 53931  53.2180  46.2319 0001173  88.4311 271.6816 15.10056734 30628,6914.164,95.361,536.84,535.218,0.0
53931.0,STARLINK-5015,PAYLOAD,2023-04-09 06:00:00,15.08808704,0.0001329,53.2186,41.7319,85.1758,322.5529,0.0023526,0.0003732,0.0,0 STARLINK-5015,1 53931U 22119AX  23099.25001157  .00037320  00000-0  23526-2 0  9995,2 53931  53.2186  41.7319 0001329  85.1758 322.5529 15.08808704 30778,6917.976,95.44,540.76,538.922,0.0
53931.0,STARLINK-5015,PAYLOAD,2023-04-09 14:00:01,15.08830855,0.0001324,53.2186,40.234,91.9555,327.3504,-0.00028661,-4.845e-05,0.0,0 STARLINK-5015,1 53931U 22119AX  23099.58334491 -.00004845  00000-0 -28661-3 0  9995,2 53931  53.2186  40.2340 0001324  91.9555 327.3504 15.08830855  1306,6917.908,95.438,540.689,538.857,0.0
53931.0,STARLINK-5015,PAYLOAD,2023-04-09 22:00:00,15.08858922,0.000139,53.2184,38.7379,99.103,331.7835,-0.0009468,-0.00015332,0.0,0 STARLINK-5015,1 53931U 22119AX  23099.91667824 -.00015332  00000-0 -94680-3 0  9998,2 53931  53.2184  38.7379 0001390  99.1030 331.7835 15.08858922 30874,6917.823,95.436,540.649,538.726,0.0
53931.0,STARLINK-5015,PAYLOAD,2023-04-10 14:00:01,15.0881525,0.0001299,53.2182,35.7452,93.22,0.8627,0.0018146,0.0002869,0.0,0 STARLINK-5015,1 53931U 22119AX  23100.58334491  .00028690  00000-0  18146-2 0  9996,2 53931  53.2182  35.7452 0001299  93.2200   0.8627 15.08815250  1309,6917.956,95.439,540.72,538.922,0.0
53931.0,STARLINK-5015,PAYLOAD,2023-04-11 00:00:02,15.0888378,0.0001257,53.2181,33.8755,92.4907,106.1309,-0.004824,-0.00076339,0.0,0 STARLINK-5015,1 53931U 22119AX  23101.00002315 -.00076339  00000-0 -48240-2 0  9994,2 53931  53.2181  33.8755 0001257  92.4907 106.1309 15.08883780  1302,6917.747,95.435,540.481,538.742,0.0
53931.0,STARLINK-5015,PAYLOAD,2023-04-11 06:00:00,15.08806389,0.0001077,53.2179,32.7542,86.9111,30.3818,0.0014013,0.00022063,0.0,0 STARLINK-5015,1 53931U 22119AX  23101.25001157  .00022063  00000-0  14013-2 0  9998,2 53931  53.2179  32.7542 0001077  86.9111  30.3818 15.08806389 31076,6917.983,95.44,540.593,539.103,0.0
53931.0,STARLINK-5015,PAYLOAD,2023-04-11 14:00:01,15.08806797,9.76e-05,53.218,31.2562,100.9156,27.9458,0.0023849,0.00037837,0.0,0 STARLINK-5015,1 53931U 22119AX  23101.58334491  .00037837  00000-0  23849-2 0  9996,2 53931  53.2180  31.2562 0000976 100.9156  27.9458 15.08806797  1305,6917.982,95.44,540.522,539.172,0.0
53931.0,STARLINK-5015,PAYLOAD,2023-04-11 22:00:00,15.0886194,0.0001009,53.218,29.7603,99.094,41.3324,-0.0015894,-0.00025509,0.0,0 STARLINK-5015,1 53931U 22119AX  23101.91667824 -.00025509  00000-0 -15894-2 0  9998,2 53931  53.2180  29.7603 0001009  99.0940  41.3324 15.08861940  1303,6917.813,95.436,540.376,538.98,0.0
53931.0,STARLINK-5015,PAYLOAD,2023-04-12 14:00:01,15.08810624,8.85e-05,53.2175,26.7671,94.515,69.1115,0.0029239,0.00046515,0.0,0 STARLINK-5015,1 53931U 22119AX  23102.58334491  .00046515  00000-0  29239-2 0  9999,2 53931  53.2175  26.7671 0000885  94.5150  69.1115 15.08810624  1302,6917.97,95.439,540.447,539.223,0.0
53931.0,STARLINK-5015,PAYLOAD,2023-04-13 05:10:32,15.08844823,0.0001208,53.2171,23.9292,97.0209,263.0921,0.0001883,2.711e-05,0.0,0 STARLINK-5015,1 53931U 22119AX  23103.21565744  .00002711  00000-0  18830-3 0  9993,2 53931  53.2171  23.9292 0001208  97.0209 263.0921 15.08844823 31793,6917.866,95.437,540.566,538.895,0.0
53931.0,STARLINK-5015,PAYLOAD,2023-04-14 03:25:55,15.08875115,0.0001033,53.2173,19.7652,90.4679,269.6431,0.0009227,0.00014441,0.0,0 STARLINK-5015,1 53931U 22119AX  23104.14300490  .00014441  00000-0  92270-3 0  9994,2 53931  53.2173  19.7652 0001033  90.4679 269.6431 15.08875115 31518,6917.773,95.435,540.353,538.923,0.0
53931.0,STARLINK-5015,PAYLOAD,2023-04-14 05:01:18,15.08882152,9.36e-05,53.2161,19.4673,97.6973,262.4126,0.001122,0.00017634,0.0,0 STARLINK-5015,1 53931U 22119AX  23104.20924217  .00017634  00000-0  11220-2 0  9992,2 53931  53.2161  19.4673 0000936  97.6973 262.4126 15.08882152 31940,6917.752,95.435,540.264,538.969,0.0
